start=new Date('2023-02-17T00:00:00.000Z').valueOf();
sats=[{"MEAN_MOTION":"15.08849759","GP_ID":"225685745","CENTER_NAME":"EARTH","EPOCH":"2023-02-16T15:06:09.194112","MEAN_ANOMALY":"261.3824","ECCENTRICITY":"0.00010760","CLASSIFICATION_TYPE":"U","RA_OF_ASC_NODE":"123.8026","COUNTRY_CODE":"US","PERIAPSIS":"538.971","SITE":"AFETR","FILE":"3799178","REF_FRAME":"TEME","BSTAR":"0.00023020000000","MEAN_MOTION_DDOT":"0.0000000000000","OBJECT_TYPE":"PAYLOAD","DECAY_DATE":null,"TIME_SYSTEM":"UTC","ELEMENT_SET_NO":"999","RCS_SIZE":"LARGE","OBJECT_ID":"2022-083AW","OBJECT_NAME":"STARLINK-4294","REV_AT_EPOCH":"3292","TLE_LINE2":"2 53176  53.2170 123.8026 0001076  98.7290 261.3824 15.08849759 32921","MEAN_MOTION_DOT":"0.00003379","EPHEMERIS_TYPE":"0","APOAPSIS":"540.460","PERIOD":"95.437","TLE_LINE1":"1 53176U 22083AW  23047.62927308  .00003379  00000-0  23020-3 0  9992","LAUNCH_DATE":"2022-07-17","SEMIMAJOR_AXIS":"6917.851","NORAD_CAT_ID":"53176","MEAN_ELEMENT_THEORY":"SGP4","INCLINATION":"53.2170","ARG_OF_PERICENTER":"98.7290"},{"REF_FRAME":"TEME","BSTAR":"0.00030496000000","MEAN_MOTION_DDOT":"0.0000000000000","FILE":"3798556","PERIAPSIS":"538.981","SITE":"AFETR","COUNTRY_CODE":"US","MEAN_ANOMALY":"276.1061","ECCENTRICITY":"0.00009490","CLASSIFICATION_TYPE":"U","RA_OF_ASC_NODE":"113.6936","MEAN_MOTION":"15.08875391","GP_ID":"225649491","EPOCH":"2023-02-16T15:39:12.815424","CENTER_NAME":"EARTH","ARG_OF_PERICENTER":"84.0039","INCLINATION":"53.2169","SEMIMAJOR_AXIS":"6917.772","NORAD_CAT_ID":"53177","MEAN_ELEMENT_THEORY":"SGP4","TLE_LINE1":"1 53177U 22083AX  23047.65223166  .00004574  00000-0  30496-3 0  9990","LAUNCH_DATE":"2022-07-17","EPHEMERIS_TYPE":"0","APOAPSIS":"540.294","PERIOD":"95.435","TLE_LINE2":"2 53177  53.2169 113.6936 0000949  84.0039 276.1061 15.08875391 33709","MEAN_MOTION_DOT":"0.00004574","OBJECT_ID":"2022-083AX","OBJECT_NAME":"STARLINK-4298","REV_AT_EPOCH":"3370","TIME_SYSTEM":"UTC","ELEMENT_SET_NO":"999","RCS_SIZE":"LARGE","OBJECT_TYPE":"PAYLOAD","DECAY_DATE":null},{"COUNTRY_CODE":"US","RA_OF_ASC_NODE":"138.5846","MEAN_ANOMALY":"270.4715","ECCENTRICITY":"0.00011390","CLASSIFICATION_TYPE":"U","CENTER_NAME":"EARTH","EPOCH":"2023-02-16T16:14:19.796064","MEAN_MOTION":"15.08841417","GP_ID":"225649636","BSTAR":"0.00006232900000","MEAN_MOTION_DDOT":"0.0000000000000","REF_FRAME":"TEME","FILE":"3798556","SITE":"AFETR","PERIAPSIS":"538.953","TLE_LINE2":"2 53178  53.2171 138.5846 0001139  89.6407 270.4715 15.08841417 33346","MEAN_MOTION_DOT":"0.00000704","REV_AT_EPOCH":"3334","OBJECT_NAME":"STARLINK-4280","OBJECT_ID":"2022-083AY","RCS_SIZE":"LARGE","TIME_SYSTEM":"UTC","ELEMENT_SET_NO":"999","DECAY_DATE":null,"OBJECT_TYPE":"PAYLOAD","ARG_OF_PERICENTER":"89.6407","INCLINATION":"53.2171","NORAD_CAT_ID":"53178","SEMIMAJOR_AXIS":"6917.876","MEAN_ELEMENT_THEORY":"SGP4","LAUNCH_DATE":"2022-07-17","TLE_LINE1":"1 53178U 22083AY  23047.67661801  .00000704  00000-0  62329-4 0  9997","APOAPSIS":"540.529","PERIOD":"95.437","EPHEMERIS_TYPE":"0"},{"MEAN_MOTION":"15.08832436","GP_ID":"225687495","EPOCH":"2023-02-16T20:49:49.254816","CENTER_NAME":"EARTH","MEAN_ANOMALY":"269.8856","ECCENTRICITY":"0.00007210","CLASSIFICATION_TYPE":"U","RA_OF_ASC_NODE":"97.3233","COUNTRY_CODE":"US","PERIAPSIS":"539.270","SITE":"AFETR","FILE":"3799178","REF_FRAME":"TEME","BSTAR":"0.00017976000000","MEAN_MOTION_DDOT":"0.0000000000000","OBJECT_TYPE":"PAYLOAD","DECAY_DATE":null,"TIME_SYSTEM":"UTC","ELEMENT_SET_NO":"999","RCS_SIZE":"LARGE","OBJECT_ID":"2022-083AZ","OBJECT_NAME":"STARLINK-4276","REV_AT_EPOCH":"3331","TLE_LINE2":"2 53179  53.2208  97.3233 0000721  90.2218 269.8856 15.08832436 33310","MEAN_MOTION_DOT":"0.00002574","EPHEMERIS_TYPE":"0","APOAPSIS":"540.267","PERIOD":"95.438","TLE_LINE1":"1 53179U 22083AZ  23047.86793119  .00002574  00000-0  17976-3 0  9991","LAUNCH_DATE":"2022-07-17","NORAD_CAT_ID":"53179","SEMIMAJOR_AXIS":"6917.904","MEAN_ELEMENT_THEORY":"SGP4","ARG_OF_PERICENTER":"90.2218","INCLINATION":"53.2208"},{"OBJECT_TYPE":"PAYLOAD","DECAY_DATE":null,"TIME_SYSTEM":"UTC","ELEMENT_SET_NO":"999","RCS_SIZE":"LARGE","OBJECT_ID":"2022-083BA","REV_AT_EPOCH":"3327","OBJECT_NAME":"STARLINK-4258","TLE_LINE2":"2 53180  53.2189  98.6265 0001355  99.1005 261.0140 15.08821429 33270","MEAN_MOTION_DOT":"0.00043013","EPHEMERIS_TYPE":"0","APOAPSIS":"540.740","PERIOD":"95.439","TLE_LINE1":"1 53180U 22083BA  23047.62139304  .00043013  00000-0  27056-2 0  9999","LAUNCH_DATE":"2022-07-17","NORAD_CAT_ID":"53180","SEMIMAJOR_AXIS":"6917.937","MEAN_ELEMENT_THEORY":"SGP4","ARG_OF_PERICENTER":"99.1005","INCLINATION":"53.2189","MEAN_MOTION":"15.08821429","GP_ID":"225686246","EPOCH":"2023-02-16T14:54:48.358656","CENTER_NAME":"EARTH","MEAN_ANOMALY":"261.0140","CLASSIFICATION_TYPE":"U","ECCENTRICITY":"0.00013550","RA_OF_ASC_NODE":"98.6265","COUNTRY_CODE":"US","PERIAPSIS":"538.865","SITE":"AFETR","FILE":"3799178","REF_FRAME":"TEME","BSTAR":"0.00270560000000","MEAN_MOTION_DDOT":"0.0000000000000"},{"OBJECT_ID":"2022-083BB","OBJECT_NAME":"STARLINK-4273","REV_AT_EPOCH":"3326","TLE_LINE2":"2 53181  53.2187  98.9074 0001529 101.2461 258.8703 15.08880932 33266","MEAN_MOTION_DOT":"0.00010599","OBJECT_TYPE":"PAYLOAD","DECAY_DATE":null,"TIME_SYSTEM":"UTC","ELEMENT_SET_NO":"999","RCS_SIZE":"LARGE","SEMIMAJOR_AXIS":"6917.755","NORAD_CAT_ID":"53181","MEAN_ELEMENT_THEORY":"SGP4","INCLINATION":"53.2187","ARG_OF_PERICENTER":"101.2461","EPHEMERIS_TYPE":"0","APOAPSIS":"540.678","PERIOD":"95.435","TLE_LINE1":"1 53181U 22083BB  23047.55240596  .00010599  00000-0  68225-3 0  9995","LAUNCH_DATE":"2022-07-17","COUNTRY_CODE":"US","MEAN_MOTION":"15.08880932","GP_ID":"225640728","CENTER_NAME":"EARTH","EPOCH":"2023-02-16T13:15:27.874944","MEAN_ANOMALY":"258.8703","CLASSIFICATION_TYPE":"U","ECCENTRICITY":"0.00015290","RA_OF_ASC_NODE":"98.9074","FILE":"3798293","REF_FRAME":"TEME","BSTAR":"0.00068225000000","MEAN_MOTION_DDOT":"0.0000000000000","PERIAPSIS":"538.563","SITE":"AFETR"},{"FILE":"3799178","BSTAR":"0.00225540000000","MEAN_MOTION_DDOT":"0.0000000000000","REF_FRAME":"TEME","SITE":"AFETR","PERIAPSIS":"538.246","COUNTRY_CODE":"US","EPOCH":"2023-02-16T15:33:30.525408","CENTER_NAME":"EARTH","MEAN_MOTION":"15.09151962","GP_ID":"225687247","RA_OF_ASC_NODE":"113.7133","MEAN_ANOMALY":"276.9990","ECCENTRICITY":"0.00007900","CLASSIFICATION_TYPE":"U","MEAN_ELEMENT_THEORY":"SGP4","SEMIMAJOR_AXIS":"6916.927","NORAD_CAT_ID":"53182","ARG_OF_PERICENTER":"83.1092","INCLINATION":"53.2184","APOAPSIS":"539.338","PERIOD":"95.418","EPHEMERIS_TYPE":"0","LAUNCH_DATE":"2022-07-17","TLE_LINE1":"1 53182U 22083BC  23047.64826997  .00036099  00000-0  22554-2 0  9998","REV_AT_EPOCH":"3306","OBJECT_NAME":"STARLINK-4278","OBJECT_ID":"2022-083BC","TLE_LINE2":"2 53182  53.2184 113.7133 0000790  83.1092 276.9990 15.09151962 33065","MEAN_MOTION_DOT":"0.00036099","DECAY_DATE":null,"OBJECT_TYPE":"PAYLOAD","RCS_SIZE":"LARGE","TIME_SYSTEM":"UTC","ELEMENT_SET_NO":"999"},{"FILE":"3799178","REF_FRAME":"TEME","BSTAR":"-0.00036066000000","MEAN_MOTION_DDOT":"0.0000000000000","PERIAPSIS":"538.104","SITE":"AFETR","COUNTRY_CODE":"US","MEAN_MOTION":"15.08805040","GP_ID":"225686995","CENTER_NAME":"EARTH","EPOCH":"2023-02-16T20:42:40.487904","MEAN_ANOMALY":"278.8012","CLASSIFICATION_TYPE":"U","ECCENTRICITY":"0.00025270","RA_OF_ASC_NODE":"102.7426","SEMIMAJOR_AXIS":"6917.987","MEAN_ELEMENT_THEORY":"SGP4","NORAD_CAT_ID":"53183","ARG_OF_PERICENTER":"81.3266","INCLINATION":"53.2172","EPHEMERIS_TYPE":"0","APOAPSIS":"541.600","PERIOD":"95.440","TLE_LINE1":"1 53183U 22083BD  23047.86296861 -.00006018  00000-0 -36066-3 0  9998","LAUNCH_DATE":"2022-07-17","OBJECT_ID":"2022-083BD","REV_AT_EPOCH":"3323","OBJECT_NAME":"STARLINK-4268","TLE_LINE2":"2 53183  53.2172 102.7426 0002527  81.3266 278.8012 15.08805040 33236","MEAN_MOTION_DOT":"-0.00006018","OBJECT_TYPE":"PAYLOAD","DECAY_DATE":null,"TIME_SYSTEM":"UTC","ELEMENT_SET_NO":"999","RCS_SIZE":"LARGE"},{"COUNTRY_CODE":"US","RA_OF_ASC_NODE":"97.3249","ECCENTRICITY":"0.00011680","CLASSIFICATION_TYPE":"U","MEAN_ANOMALY":"261.8880","EPOCH":"2023-02-16T20:44:29.967072","CENTER_NAME":"EARTH","GP_ID":"225685746","MEAN_MOTION":"15.08840171","MEAN_MOTION_DDOT":"0.0000000000000","BSTAR":"-0.00036445000000","REF_FRAME":"TEME","FILE":"3799178","SITE":"AFETR","PERIAPSIS":"538.937","MEAN_MOTION_DOT":"-0.00006083","TLE_LINE2":"2 53184  53.2195  97.3249 0001168  98.2245 261.8880 15.08840171 33327","REV_AT_EPOCH":"3332","OBJECT_NAME":"STARLINK-4257","OBJECT_ID":"2022-083BE","RCS_SIZE":"LARGE","ELEMENT_SET_NO":"999","TIME_SYSTEM":"UTC","DECAY_DATE":null,"OBJECT_TYPE":"PAYLOAD","INCLINATION":"53.2195","ARG_OF_PERICENTER":"98.2245","SEMIMAJOR_AXIS":"6917.880","NORAD_CAT_ID":"53184","MEAN_ELEMENT_THEORY":"SGP4","LAUNCH_DATE":"2022-07-17","TLE_LINE1":"1 53184U 22083BE  23047.86423573 -.00006083  00000-0 -36445-3 0  9994","PERIOD":"95.438","APOAPSIS":"540.553","EPHEMERIS_TYPE":"0"},{"EPHEMERIS_TYPE":"0","PERIOD":"95.920","APOAPSIS":"563.709","TLE_LINE1":"1 53189U 22084A   23047.62066289  .00000142  00000-0  15665-4 0  9991","LAUNCH_DATE":"2022-07-22","MEAN_ELEMENT_THEORY":"SGP4","SEMIMAJOR_AXIS":"6941.165","NORAD_CAT_ID":"53189","INCLINATION":"97.6561","ARG_OF_PERICENTER":"110.5031","OBJECT_TYPE":"PAYLOAD","DECAY_DATE":null,"ELEMENT_SET_NO":"999","TIME_SYSTEM":"UTC","RCS_SIZE":"LARGE","OBJECT_ID":"2022-084A","REV_AT_EPOCH":"3239","OBJECT_NAME":"STARLINK-4391","MEAN_MOTION_DOT":"0.00000142","TLE_LINE2":"2 53189  97.6561 110.4103 0000979 110.5031 249.6299 15.01254145 32394","PERIAPSIS":"562.350","SITE":"AFWTR","FILE":"3799178","REF_FRAME":"TEME","MEAN_MOTION_DDOT":"0.0000000000000","BSTAR":"0.00001566500000","GP_ID":"225686496","MEAN_MOTION":"15.01254145","EPOCH":"2023-02-16T14:53:45.273696","CENTER_NAME":"EARTH","CLASSIFICATION_TYPE":"U","ECCENTRICITY":"0.00009790","MEAN_ANOMALY":"249.6299","RA_OF_ASC_NODE":"110.4103","COUNTRY_CODE":"US"}];
